GLOBALSTAR M068         
1 32266U 07048D   25304.05403536 -.00000058  00000+0  25621-3 0  9990
2 32266  51.9884 248.0856 0001695  67.8905  13.9338 12.62831978834723
GLOBALSTAR M079         
1 37188U 10054A   25304.16018954 -.00000096  00000+0  44940-4 0  9995
2 37188  52.0031  85.8603 0000750 124.1488  47.6340 12.62268078693622
GLOBALSTAR M074         
1 37189U 10054B   25303.78519414 -.00000091  00000+0  70775-4 0  9990
2 37189  52.0006  86.3029 0000759  99.8858  46.8365 12.62272846694189
GLOBALSTAR M076         
1 37190U 10054C   25303.81317589 -.00000077  00000+0  14863-3 0  9994
2 37190  52.0020  86.4026 0000544 108.4509  44.3862 12.62267274693900
GLOBALSTAR M077         
1 37191U 10054D   25303.80391194 -.00000101  00000+0 -36906-4 0  9990
2 37191  52.0092  47.7698 0002020  60.4678 107.8314 12.36452527694210
GLOBALSTAR M075         
1 37192U 10054E   25303.98623215 -.00000082  00000+0  12030-3 0  9990
2 37192  51.9919 128.0579 0000932  92.4658  68.3234 12.62269400692991
GLOBALSTAR M073         
1 37193U 10054F   25303.75007425 -.00000103  00000+0  18860-5 0  9998
2 37193  52.0079  42.6998 0000523 131.5515  34.3264 12.62263627694959
GLOBALSTAR M083         
1 37739U 11033A   25304.29784414 -.00000091  00000+0  69905-4 0  9993
2 37739  51.9879 349.5769 0000331 135.1658 302.8299 12.62264017664043
GLOBALSTAR M088         
1 37740U 11033B   25304.19853211 -.00000094  00000+0  55040-4 0  9994
2 37740  52.0215 255.7522 0000687  63.1283  42.0385 12.62269377659579
GLOBALSTAR M091         
1 37741U 11033C   25303.96864610 -.00000094  00000+0  54835-4 0  9995
2 37741  51.9991 219.7556 0000837  80.4495 359.8994 12.62261188660333
GLOBALSTAR M085         
1 37742U 11033D   25303.96085200 -.00000090  00000+0  74569-4 0  9998
2 37742  52.0104 170.8720 0000994  94.0123  11.0177 12.62266392660843
GLOBALSTAR M081         
1 37743U 11033E   25303.65158765 -.00000094  00000+0  55830-4 0  9996
2 37743  51.9940 174.5106 0000790  86.9088 291.9771 12.62269811660953
GLOBALSTAR M089         
1 37744U 11033F   25303.95827013 -.00000081  00000+0  12968-3 0  9999
2 37744  51.9900 127.7770 0000845  77.5332  76.5149 12.62272267661839
GLOBALSTAR M084         
1 38040U 11080A   25303.57463368 -.00000097  00000+0  35286-4 0  9994
2 38040  52.0032 356.3060 0000265  62.1822  87.1584 12.62264427639766
GLOBALSTAR M080         
1 38041U 11080B   25304.32245997 -.00000090  00000+0  77766-4 0  9997
2 38041  52.0082 355.6689 0000855 109.8295 328.7779 12.62269994639987
GLOBALSTAR M082         
1 38042U 11080C   25304.17890502 -.00000088  00000+0  90292-4 0  9995
2 38042  52.0083 311.5821 0000616 103.6585 332.6225 12.62264341640676
GLOBALSTAR M092         
1 38043U 11080D   25303.69330317 -.00000098  00000+0  33088-4 0  9996
2 38043  52.0100  43.4420 0000641 108.6667  39.1115 12.62267356639064
GLOBALSTAR M090         
1 38044U 11080E   25304.20636159 -.00000081  00000+0  12443-3 0  9991
2 38044  52.0130 305.3808 0000314 101.3373 338.8518 12.62263591640794
GLOBALSTAR M086         
1 38045U 11080F   25304.31570132 -.00000080  00000+0  13450-3 0  9990
2 38045  51.9904 305.3501 0000640 264.1819 200.1735 12.62278759640757
GLOBALSTAR M097         
1 39072U 13005A   25304.08286596 -.00000108  00000+0 -22435-4 0  9998
2 39072  52.0042 220.7503 0000606  76.8243 283.2691 12.62266840587971
GLOBALSTAR M093         
1 39073U 13005B   25304.05687532 -.00000093  00000+0  60581-4 0  9997
2 39073  52.0100 214.0902 0000603  95.0574 265.0362 12.62265913587921
GLOBALSTAR M094         
1 39074U 13005C   25304.21492781 -.00000090  00000+0  77485-4 0  9994
2 39074  51.9930 127.9515 0000871 107.7083 252.3879 12.62264969589559
GLOBALSTAR M096         
1 39075U 13005D   25303.67381125 -.00000093  00000+0  60902-4 0  9992
2 39075  52.0055 178.2208 0000886  93.9073 266.1896 12.62268363588406
GLOBALSTAR M078         
1 39076U 13005E   25304.04385699 -.00000085  00000+0  10295-3 0  9995
2 39076  51.9869 261.4221 0001277 100.2968 259.8043 12.62261624587076
GLOBALSTAR M095         
1 39077U 13005F   25304.14906448 -.00000097  00000+0  36372-4 0  9996
2 39077  52.0078 258.3793 0000700 104.7256 255.3688 12.62261212586943
GLOBALSTAR M087         
1 52888U 22064A   25303.60765032 -.00000098  00000+0  34388-4 0  9994
2 52888  52.0016  41.3926 0000728 129.0516 231.0416 12.62289568162143
